SL-14 R/B               
1 16792U 86046B   26085.91542794  .00000514  00000+0  56287-4 0  9992
2 16792  82.4799  63.9010 0023386 167.2746 192.9066 14.85606592128965
SL-14 R/B               
1 16882U 86055B   26085.44929134  .00000433  00000+0  47073-4 0  9990
2 16882  82.5173 110.9177 0017314 277.3750 199.4452 14.85656958121854
AJISAI (EGS)            
1 16908U 86061A   26085.90719892 -.00000098  00000+0 -24242-5 0  9998
2 16908  50.0108  40.4022 0011328 331.3560 124.9738 12.44515630470149
SL-14 R/B               
1 17567U 87024B   26085.67322750  .00000465  00000+0  50190-4 0  9993
2 17567  82.5250  76.7959 0017615 199.7939 160.2596 14.86147624 90652
COSMOS 1833             
1 17589U 87027A   26085.77903527 -.00000281  00000+0 -12432-3 0  9992
2 17589  70.9175 290.0997 0023377 189.5002 170.5680 14.13048437 12739
SL-16 R/B               
1 17590U 87027B   26085.84430309 -.00000149  00000+0 -50145-4 0  9992
2 17590  71.0012 240.3422 0002852 100.9953 259.1491 14.17165698 17777
SL-14 R/B               
1 17912U 87038B   26085.54219350  .00000452  00000+0  49505-4 0  9993
2 17912  82.4978 280.9277 0020708 107.6614 252.6866 14.85383726 81738
COSMOS 1844             
1 17973U 87041A   26085.86674867  .00000331  00000+0  19693-3 0  9997
2 17973  70.9013 357.9460 0030915 352.8271   7.2403 14.14555018  6016
SL-14 R/B               
1 18153U 87055B   26085.11197072  .00000423  00000+0  45893-4 0  9993
2 18153  82.5012 333.5567 0019698 322.9634  37.0221 14.85645523 72379
COSMOS 1867             
1 18187U 87060A   26085.83678127 -.00000003  00000+0  36355-4 0  9998
2 18187  65.0091 258.6824 0014773 279.6678  80.2738 14.31505590 22397
SL-14 R/B               
1 18749U 88001B   26085.84939300  .00000502  00000+0  55112-4 0  9997
2 18749  82.5162 179.2260 0018163 176.8936 183.2396 14.85546412 44573
COSMOS 1933             
1 18958U 88020A   26085.86219372  .00004527  00000+0  22030-3 0  9995
2 18958  82.5119 233.9171 0005105 130.6300 229.5378 15.18142711 52834
