CCSDS_OMM_VERS = 2.0
CREATION_DATE  = 
ORIGINATOR     = 

OBJECT_NAME    = SL-14 R/B
OBJECT_ID      = 1986-046B
CENTER_NAME    = EARTH
REF_FRAME      = TEME
TIME_SYSTEM    = UTC
MEAN_ELEMENT_THEORY = SGP/SGP4

EPOCH          = 2026-03-26T21:58:12.974016
MEAN_MOTION    = 14.85606592
ECCENTRICITY   = .0023386
INCLINATION    = 82.4799
RA_OF_ASC_NODE = 63.9010
ARG_OF_PERICENTER = 167.2746
MEAN_ANOMALY   = 192.9066

EPHEMERIS_TYPE = 0
CLASSIFICATION_TYPE = U
NORAD_CAT_ID   = 16792
ELEMENT_SET_NO = 999
REV_AT_EPOCH   = 12896
BSTAR          = .56287E-4
MEAN_MOTION_DOT = .514E-5
MEAN_MOTION_DDOT = 0

CCSDS_OMM_VERS = 2.0
CREATION_DATE  = 
ORIGINATOR     = 

OBJECT_NAME    = SL-14 R/B
OBJECT_ID      = 1986-055B
CENTER_NAME    = EARTH
REF_FRAME      = TEME
TIME_SYSTEM    = UTC
MEAN_ELEMENT_THEORY = SGP/SGP4

EPOCH          = 2026-03-26T10:46:58.771776
MEAN_MOTION    = 14.85656958
ECCENTRICITY   = .0017314
INCLINATION    = 82.5173
RA_OF_ASC_NODE = 110.9177
ARG_OF_PERICENTER = 277.3750
MEAN_ANOMALY   = 199.4452

EPHEMERIS_TYPE = 0
CLASSIFICATION_TYPE = U
NORAD_CAT_ID   = 16882
ELEMENT_SET_NO = 999
REV_AT_EPOCH   = 12185
BSTAR          = .47073E-4
MEAN_MOTION_DOT = .433E-5
MEAN_MOTION_DDOT = 0

CCSDS_OMM_VERS = 2.0
CREATION_DATE  = 
ORIGINATOR     = 

OBJECT_NAME    = AJISAI (EGS)
OBJECT_ID      = 1986-061A
CENTER_NAME    = EARTH
REF_FRAME      = TEME
TIME_SYSTEM    = UTC
MEAN_ELEMENT_THEORY = SGP/SGP4

EPOCH          = 2026-03-26T21:46:21.986688
MEAN_MOTION    = 12.44515630
ECCENTRICITY   = .0011328
INCLINATION    = 50.0108
RA_OF_ASC_NODE = 40.4022
ARG_OF_PERICENTER = 331.3560
MEAN_ANOMALY   = 124.9738

EPHEMERIS_TYPE = 0
CLASSIFICATION_TYPE = U
NORAD_CAT_ID   = 16908
ELEMENT_SET_NO = 999
REV_AT_EPOCH   = 47014
BSTAR          = -.24242E-5
MEAN_MOTION_DOT = -.98E-6
MEAN_MOTION_DDOT = 0

CCSDS_OMM_VERS = 2.0
CREATION_DATE  = 
ORIGINATOR     = 

OBJECT_NAME    = SL-14 R/B
OBJECT_ID      = 1987-024B
CENTER_NAME    = EARTH
REF_FRAME      = TEME
TIME_SYSTEM    = UTC
MEAN_ELEMENT_THEORY = SGP/SGP4

EPOCH          = 2026-03-26T16:09:26.856000
MEAN_MOTION    = 14.86147624
ECCENTRICITY   = .0017615
INCLINATION    = 82.5250
RA_OF_ASC_NODE = 76.7959
ARG_OF_PERICENTER = 199.7939
MEAN_ANOMALY   = 160.2596

EPHEMERIS_TYPE = 0
CLASSIFICATION_TYPE = U
NORAD_CAT_ID   = 17567
ELEMENT_SET_NO = 999
REV_AT_EPOCH   = 9065
BSTAR          = .5019E-4
MEAN_MOTION_DOT = .465E-5
MEAN_MOTION_DDOT = 0

CCSDS_OMM_VERS = 2.0
CREATION_DATE  = 
ORIGINATOR     = 

OBJECT_NAME    = COSMOS 1833
OBJECT_ID      = 1987-027A
CENTER_NAME    = EARTH
REF_FRAME      = TEME
TIME_SYSTEM    = UTC
MEAN_ELEMENT_THEORY = SGP/SGP4

EPOCH          = 2026-03-26T18:41:48.647328
MEAN_MOTION    = 14.13048437
ECCENTRICITY   = .0023377
INCLINATION    = 70.9175
RA_OF_ASC_NODE = 290.0997
ARG_OF_PERICENTER = 189.5002
MEAN_ANOMALY   = 170.5680

EPHEMERIS_TYPE = 0
CLASSIFICATION_TYPE = U
NORAD_CAT_ID   = 17589
ELEMENT_SET_NO = 999
REV_AT_EPOCH   = 1273
BSTAR          = -.12432E-3
MEAN_MOTION_DOT = -.281E-5
MEAN_MOTION_DDOT = 0

CCSDS_OMM_VERS = 2.0
CREATION_DATE  = 
ORIGINATOR     = 

OBJECT_NAME    = SL-16 R/B
OBJECT_ID      = 1987-027B
CENTER_NAME    = EARTH
REF_FRAME      = TEME
TIME_SYSTEM    = UTC
MEAN_ELEMENT_THEORY = SGP/SGP4

EPOCH          = 2026-03-26T20:15:47.786976
MEAN_MOTION    = 14.17165698
ECCENTRICITY   = .0002852
INCLINATION    = 71.0012
RA_OF_ASC_NODE = 240.3422
ARG_OF_PERICENTER = 100.9953
MEAN_ANOMALY   = 259.1491

EPHEMERIS_TYPE = 0
CLASSIFICATION_TYPE = U
NORAD_CAT_ID   = 17590
ELEMENT_SET_NO = 999
REV_AT_EPOCH   = 1777
BSTAR          = -.50145E-4
MEAN_MOTION_DOT = -.149E-5
MEAN_MOTION_DDOT = 0

CCSDS_OMM_VERS = 2.0
CREATION_DATE  = 
ORIGINATOR     = 

OBJECT_NAME    = SL-14 R/B
OBJECT_ID      = 1987-038B
CENTER_NAME    = EARTH
REF_FRAME      = TEME
TIME_SYSTEM    = UTC
MEAN_ELEMENT_THEORY = SGP/SGP4

EPOCH          = 2026-03-26T13:00:45.518400
MEAN_MOTION    = 14.85383726
ECCENTRICITY   = .0020708
INCLINATION    = 82.4978
RA_OF_ASC_NODE = 280.9277
ARG_OF_PERICENTER = 107.6614
MEAN_ANOMALY   = 252.6866

EPHEMERIS_TYPE = 0
CLASSIFICATION_TYPE = U
NORAD_CAT_ID   = 17912
ELEMENT_SET_NO = 999
REV_AT_EPOCH   = 8173
BSTAR          = .49505E-4
MEAN_MOTION_DOT = .452E-5
MEAN_MOTION_DDOT = 0

CCSDS_OMM_VERS = 2.0
CREATION_DATE  = 
ORIGINATOR     = 

OBJECT_NAME    = COSMOS 1844
OBJECT_ID      = 1987-041A
CENTER_NAME    = EARTH
REF_FRAME      = TEME
TIME_SYSTEM    = UTC
MEAN_ELEMENT_THEORY = SGP/SGP4

EPOCH          = 2026-03-26T20:48:07.085088
MEAN_MOTION    = 14.14555018
ECCENTRICITY   = .0030915
INCLINATION    = 70.9013
RA_OF_ASC_NODE = 357.9460
ARG_OF_PERICENTER = 352.8271
MEAN_ANOMALY   = 7.2403

EPHEMERIS_TYPE = 0
CLASSIFICATION_TYPE = U
NORAD_CAT_ID   = 17973
ELEMENT_SET_NO = 999
REV_AT_EPOCH   = 601
BSTAR          = .19693E-3
MEAN_MOTION_DOT = .331E-5
MEAN_MOTION_DDOT = 0

CCSDS_OMM_VERS = 2.0
CREATION_DATE  = 
ORIGINATOR     = 

OBJECT_NAME    = SL-14 R/B
OBJECT_ID      = 1987-055B
CENTER_NAME    = EARTH
REF_FRAME      = TEME
TIME_SYSTEM    = UTC
MEAN_ELEMENT_THEORY = SGP/SGP4

EPOCH          = 2026-03-26T02:41:14.270208
MEAN_MOTION    = 14.85645523
ECCENTRICITY   = .00196984
INCLINATION    = 82.5012
RA_OF_ASC_NODE = 333.5567
ARG_OF_PERICENTER = 322.9634
MEAN_ANOMALY   = 37.0221

EPHEMERIS_TYPE = 0
CLASSIFICATION_TYPE = U
NORAD_CAT_ID   = 18153
ELEMENT_SET_NO = 999
REV_AT_EPOCH   = 7237
BSTAR          = .45892627E-4
MEAN_MOTION_DOT = .423E-5
MEAN_MOTION_DDOT = 0

CCSDS_OMM_VERS = 2.0
CREATION_DATE  = 
ORIGINATOR     = 

OBJECT_NAME    = COSMOS 1867
OBJECT_ID      = 1987-060A
CENTER_NAME    = EARTH
REF_FRAME      = TEME
TIME_SYSTEM    = UTC
MEAN_ELEMENT_THEORY = SGP/SGP4

EPOCH          = 2026-03-26T20:04:57.901728
MEAN_MOTION    = 14.31505590
ECCENTRICITY   = .0014773
INCLINATION    = 65.0091
RA_OF_ASC_NODE = 258.6824
ARG_OF_PERICENTER = 279.6678
MEAN_ANOMALY   = 80.2738

EPHEMERIS_TYPE = 0
CLASSIFICATION_TYPE = U
NORAD_CAT_ID   = 18187
ELEMENT_SET_NO = 999
REV_AT_EPOCH   = 2239
BSTAR          = .36355E-4
MEAN_MOTION_DOT = -.3E-7
MEAN_MOTION_DDOT = 0

CCSDS_OMM_VERS = 2.0
CREATION_DATE  = 
ORIGINATOR     = 

OBJECT_NAME    = SL-14 R/B
OBJECT_ID      = 1988-001B
CENTER_NAME    = EARTH
REF_FRAME      = TEME
TIME_SYSTEM    = UTC
MEAN_ELEMENT_THEORY = SGP/SGP4

EPOCH          = 2026-03-26T20:23:07.555200
MEAN_MOTION    = 14.85546412
ECCENTRICITY   = .0018163
INCLINATION    = 82.5162
RA_OF_ASC_NODE = 179.2260
ARG_OF_PERICENTER = 176.8936
MEAN_ANOMALY   = 183.2396

EPHEMERIS_TYPE = 0
CLASSIFICATION_TYPE = U
NORAD_CAT_ID   = 18749
ELEMENT_SET_NO = 999
REV_AT_EPOCH   = 4457
BSTAR          = .55112E-4
MEAN_MOTION_DOT = .502E-5
MEAN_MOTION_DDOT = 0

CCSDS_OMM_VERS = 2.0
CREATION_DATE  = 
ORIGINATOR     = 

OBJECT_NAME    = COSMOS 1933
OBJECT_ID      = 1988-020A
CENTER_NAME    = EARTH
REF_FRAME      = TEME
TIME_SYSTEM    = UTC
MEAN_ELEMENT_THEORY = SGP/SGP4

EPOCH          = 2026-03-26T20:41:33.537408
MEAN_MOTION    = 15.18142711
ECCENTRICITY   = .0005105
INCLINATION    = 82.5119
RA_OF_ASC_NODE = 233.9171
ARG_OF_PERICENTER = 130.6300
MEAN_ANOMALY   = 229.5378

EPHEMERIS_TYPE = 0
CLASSIFICATION_TYPE = U
NORAD_CAT_ID   = 18958
ELEMENT_SET_NO = 999
REV_AT_EPOCH   = 5283
BSTAR          = .2203E-3
MEAN_MOTION_DOT = .4527E-4
MEAN_MOTION_DDOT = 0

